<?xml version="1.0" encoding="UTF-8"?>
<kml xmlns="http://www.opengis.net/kml/2.2" xmlns:gx="http://www.google.com/kml/ext/2.2" xmlns:kml="http://www.opengis.net/kml/2.2" xmlns:atom="http://www.w3.org/2005/Atom">
<Document>
	<name>belanagar</name>
	<gx:CascadingStyle kml:id="__managed_style_1B8A34A4C1424511739E">
		<Style>
			<IconStyle>
				<scale>1.2</scale>
				<Icon>
					<href>https://earth.google.com/earth/document/icon?color=1976d2&amp;id=2000&amp;scale=4</href>
				</Icon>
				<hotSpot x="64" y="128" xunits="pixels" yunits="insetPixels"/>
			</IconStyle>
			<LabelStyle>
			</LabelStyle>
			<LineStyle>
				<color>ff2dc0fb</color>
				<width>2.13333</width>
			</LineStyle>
			<PolyStyle>
				<color>40ffffff</color>
			</PolyStyle>
			<BalloonStyle>
				<displayMode>hide</displayMode>
			</BalloonStyle>
		</Style>
	</gx:CascadingStyle>
	<StyleMap id="__managed_style_04CAB2AECB42451173A0">
		<Pair>
			<key>normal</key>
			<styleUrl>#__managed_style_16F3D6207442451173A0</styleUrl>
		</Pair>
		<Pair>
			<key>highlight</key>
			<styleUrl>#__managed_style_0CAD24E9EE42451173A1</styleUrl>
		</Pair>
	</StyleMap>
	<gx:CascadingStyle kml:id="__managed_style_04ADA49478424511739E">
		<Style>
			<IconStyle>
				<Icon>
					<href>https://earth.google.com/earth/document/icon?color=1976d2&amp;id=2000&amp;scale=4</href>
				</Icon>
				<hotSpot x="64" y="128" xunits="pixels" yunits="insetPixels"/>
			</IconStyle>
			<LabelStyle>
			</LabelStyle>
			<LineStyle>
				<color>ff2dc0fb</color>
				<width>1.42222</width>
			</LineStyle>
			<PolyStyle>
				<color>40ffffff</color>
			</PolyStyle>
			<BalloonStyle>
				<displayMode>hide</displayMode>
			</BalloonStyle>
		</Style>
	</gx:CascadingStyle>
	<gx:CascadingStyle kml:id="__managed_style_0CAD24E9EE42451173A1">
		<styleUrl>https://earth.google.com/balloon_components/base/1.1.0.0/none_template.kml#main</styleUrl>
		<Style>
			<IconStyle>
				<scale>1.2</scale>
				<Icon>
					<href>https://earth.google.com/earth/document/icon?color=1976d2&amp;id=2000&amp;scale=4</href>
				</Icon>
				<hotSpot x="64" y="128" xunits="pixels" yunits="insetPixels"/>
			</IconStyle>
			<LabelStyle>
			</LabelStyle>
			<LineStyle>
				<color>ff007cf5</color>
				<width>2.13333</width>
			</LineStyle>
			<PolyStyle>
				<color>40ffffff</color>
			</PolyStyle>
			<BalloonStyle>
				<displayMode>hide</displayMode>
			</BalloonStyle>
		</Style>
	</gx:CascadingStyle>
	<gx:CascadingStyle kml:id="__managed_style_16F3D6207442451173A0">
		<styleUrl>https://earth.google.com/balloon_components/base/1.1.0.0/none_template.kml#main</styleUrl>
		<Style>
			<IconStyle>
				<Icon>
					<href>https://earth.google.com/earth/document/icon?color=1976d2&amp;id=2000&amp;scale=4</href>
				</Icon>
				<hotSpot x="64" y="128" xunits="pixels" yunits="insetPixels"/>
			</IconStyle>
			<LabelStyle>
			</LabelStyle>
			<LineStyle>
				<color>ff007cf5</color>
				<width>1.42222</width>
			</LineStyle>
			<PolyStyle>
				<color>40ffffff</color>
			</PolyStyle>
			<BalloonStyle>
				<displayMode>hide</displayMode>
			</BalloonStyle>
		</Style>
	</gx:CascadingStyle>
	<StyleMap id="__managed_style_042A0B96F7424511739D">
		<Pair>
			<key>normal</key>
			<styleUrl>#__managed_style_04ADA49478424511739E</styleUrl>
		</Pair>
		<Pair>
			<key>highlight</key>
			<styleUrl>#__managed_style_1B8A34A4C1424511739E</styleUrl>
		</Pair>
	</StyleMap>
	<Placemark id="0BB780226C3C962C98B6">
		<name>belanagar</name>
		<LookAt>
			<longitude>86.67402155812418</longitude>
			<latitude>26.12504135659008</latitude>
			<altitude>75.79790856490827</altitude>
			<heading>12.22604608879016</heading>
			<tilt>0</tilt>
			<gx:fovy>35.00000002623511</gx:fovy>
			<range>8874.958675552625</range>
			<altitudeMode>absolute</altitudeMode>
		</LookAt>
		<styleUrl>#__managed_style_042A0B96F7424511739D</styleUrl>
		<Polygon>
			<outerBoundaryIs>
				<LinearRing>
					<coordinates>
						86.67723573823194,26.1465863938198,0 86.66694764549884,26.13376617988068,0 86.666216600494,26.12592179172914,0 86.67204880824393,26.12455479399405,0 86.67578753155951,26.1253341080082,0 86.67863205938072,26.12896056674681,0 86.6786463112463,26.13566581807727,0 86.68023972203625,26.14735239201803,0 86.67723573823194,26.1465863938198,0 
					</coordinates>
				</LinearRing>
			</outerBoundaryIs>
		</Polygon>
	</Placemark>
	<Placemark id="0022127E733C967D2EF5">
		<name>राजधानी</name>
		<LookAt>
			<longitude>86.67626551022593</longitude>
			<latitude>26.13019799204722</latitude>
			<altitude>73.82095392149721</altitude>
			<heading>305.0893548339315</heading>
			<tilt>0</tilt>
			<gx:fovy>35</gx:fovy>
			<range>4296.103027671926</range>
			<altitudeMode>absolute</altitudeMode>
		</LookAt>
		<styleUrl>#__managed_style_04CAB2AECB42451173A0</styleUrl>
		<Polygon>
			<outerBoundaryIs>
				<LinearRing>
					<coordinates>
						86.67585103895298,26.1332405763038,0 86.67524183797535,26.13346923622975,0 86.67488830689328,26.13221478542568,0 86.67563844172669,26.13199787084123,0 86.67585103895298,26.1332405763038,0 
					</coordinates>
				</LinearRing>
			</outerBoundaryIs>
		</Polygon>
	</Placemark>
</Document>
</kml>
